[{"OBJECT_NAME":"IRIDIUM 180","OBJECT_ID":"2019-002A","EPOCH":"2026-03-09T22:12:10.971936","MEAN_MOTION":14.34217842,"ECCENTRICITY":0.00022889,"INCLINATION":86.3973,"RA_OF_ASC_NODE":35.0663,"ARG_OF_PERICENTER":84.9653,"MEAN_ANOMALY":275.1804,"EPHEMERIS_TYPE":0,"CLASSIFICATION_TYPE":"U","NORAD_CAT_ID":43922,"ELEMENT_SET_NO":999,"REV_AT_EPOCH":37476,"BSTAR":6.536861e-6,"MEAN_MOTION_DOT":3.8e-7,"MEAN_MOTION_DDOT":0},{"OBJECT_NAME":"DELTA 1 DEB","OBJECT_ID":"1977-065CP","EPOCH":"2026-03-09T17:31:47.793792","MEAN_MOTION":13.76448417,"ECCENTRICITY":0.06350814,"INCLINATION":29.0588,"RA_OF_ASC_NODE":99.4009,"ARG_OF_PERICENTER":346.601,"MEAN_ANOMALY":11.8386,"EPHEMERIS_TYPE":0,"CLASSIFICATION_TYPE":"U","NORAD_CAT_ID":10262,"ELEMENT_SET_NO":999,"REV_AT_EPOCH":39254,"BSTAR":0.00092776054,"MEAN_MOTION_DOT":4.395e-5,"MEAN_MOTION_DDOT":0}]
